start=new Date('2023-03-11T00:00:00.000Z').valueOf();
sats=[{"GP_ID":"227816061","REF_FRAME":"TEME","PERIOD":"95.593","MEAN_ANOMALY":"292.9721","EPOCH":"2023-03-10T22:30:56.169504","RCS_SIZE":"LARGE","CENTER_NAME":"EARTH","MEAN_MOTION_DDOT":"0.0000000000000","SITE":"AFETR","TIME_SYSTEM":"UTC","ECCENTRICITY":"0.00011310","REV_AT_EPOCH":"11498","COUNTRY_CODE":"US","ARG_OF_PERICENTER":"67.1387","OBJECT_NAME":"STARLINK-2035","MEAN_MOTION_DOT":"0.00003426","BSTAR":"0.00024880000000","OBJECT_TYPE":"PAYLOAD","LAUNCH_DATE":"2021-02-16","EPHEMERIS_TYPE":"0","APOAPSIS":"548.017","INCLINATION":"53.0533","RA_OF_ASC_NODE":"306.1972","SEMIMAJOR_AXIS":"6925.368","CLASSIFICATION_TYPE":"U","MEAN_ELEMENT_THEORY":"SGP4","DECAY_DATE":null,"MEAN_MOTION":"15.06393549","OBJECT_ID":"2021-012AH","FILE":"3856975","TLE_LINE1":"1 47651U 21012AH  23069.93815011  .00003426  00000-0  24880-3 0  9997","ELEMENT_SET_NO":"999","TLE_LINE2":"2 47651  53.0533 306.1972 0001131  67.1387 292.9721 15.06393549114980","PERIAPSIS":"546.450","NORAD_CAT_ID":"47651"},{"MEAN_MOTION_DDOT":"0.0000000000000","SITE":"AFETR","CENTER_NAME":"EARTH","COUNTRY_CODE":"US","REV_AT_EPOCH":"11497","ARG_OF_PERICENTER":"79.0240","TIME_SYSTEM":"UTC","ECCENTRICITY":"0.00011500","MEAN_ANOMALY":"281.0878","EPOCH":"2023-03-10T21:27:14.027040","GP_ID":"227814809","REF_FRAME":"TEME","PERIOD":"95.593","RCS_SIZE":"LARGE","CLASSIFICATION_TYPE":"U","MEAN_ELEMENT_THEORY":"SGP4","MEAN_MOTION":"15.06381742","DECAY_DATE":null,"EPHEMERIS_TYPE":"0","APOAPSIS":"548.066","INCLINATION":"53.0541","SEMIMAJOR_AXIS":"6925.405","RA_OF_ASC_NODE":"306.3523","TLE_LINE1":"1 47652U 21012AJ  23069.89391235 -.00005195  00000-0 -33026-3 0  9999","ELEMENT_SET_NO":"999","FILE":"3856975","TLE_LINE2":"2 47652  53.0541 306.3523 0001150  79.0240 281.0878 15.06381742114978","PERIAPSIS":"546.473","NORAD_CAT_ID":"47652","OBJECT_ID":"2021-012AJ","OBJECT_NAME":"STARLINK-2036","OBJECT_TYPE":"PAYLOAD","LAUNCH_DATE":"2021-02-16","MEAN_MOTION_DOT":"-0.00005195","BSTAR":"-0.00033026000000"},{"TIME_SYSTEM":"UTC","ECCENTRICITY":"0.00011110","COUNTRY_CODE":"US","REV_AT_EPOCH":"11524","ARG_OF_PERICENTER":"81.9143","CENTER_NAME":"EARTH","MEAN_MOTION_DDOT":"0.0000000000000","SITE":"AFETR","RCS_SIZE":"LARGE","GP_ID":"227815059","PERIOD":"95.587","REF_FRAME":"TEME","MEAN_ANOMALY":"278.1972","EPOCH":"2023-03-10T21:19:12.209664","OBJECT_ID":"2021-012AK","TLE_LINE2":"2 47653  53.0529 286.3785 0001111  81.9143 278.1972 15.06485725115242","TLE_LINE1":"1 47653U 21012AK  23069.88833576  .00027815  00000-0  18745-2 0  9999","ELEMENT_SET_NO":"999","FILE":"3856975","NORAD_CAT_ID":"47653","PERIAPSIS":"546.181","APOAPSIS":"547.720","EPHEMERIS_TYPE":"0","RA_OF_ASC_NODE":"286.3785","SEMIMAJOR_AXIS":"6925.086","INCLINATION":"53.0529","CLASSIFICATION_TYPE":"U","DECAY_DATE":null,"MEAN_MOTION":"15.06485725","MEAN_ELEMENT_THEORY":"SGP4","MEAN_MOTION_DOT":"0.00027815","BSTAR":"0.00187450000000","OBJECT_TYPE":"PAYLOAD","LAUNCH_DATE":"2021-02-16","OBJECT_NAME":"STARLINK-2037"},{"CLASSIFICATION_TYPE":"U","MEAN_ELEMENT_THEORY":"SGP4","MEAN_MOTION":"15.06388699","DECAY_DATE":null,"EPHEMERIS_TYPE":"0","APOAPSIS":"548.075","INCLINATION":"53.0535","RA_OF_ASC_NODE":"306.3304","SEMIMAJOR_AXIS":"6925.383","ELEMENT_SET_NO":"999","TLE_LINE1":"1 47654U 21012AL  23069.89759684  .00000237  00000-0  34780-4 0  9996","FILE":"3856975","TLE_LINE2":"2 47654  53.0535 306.3304 0001194 105.1057 255.0064 15.06388699114971","PERIAPSIS":"546.421","NORAD_CAT_ID":"47654","OBJECT_ID":"2021-012AL","OBJECT_NAME":"STARLINK-2038","OBJECT_TYPE":"PAYLOAD","LAUNCH_DATE":"2021-02-16","MEAN_MOTION_DOT":"0.00000237","BSTAR":"0.00003478000000","MEAN_MOTION_DDOT":"0.0000000000000","SITE":"AFETR","CENTER_NAME":"EARTH","REV_AT_EPOCH":"11497","COUNTRY_CODE":"US","ARG_OF_PERICENTER":"105.1057","TIME_SYSTEM":"UTC","ECCENTRICITY":"0.00011940","MEAN_ANOMALY":"255.0064","EPOCH":"2023-03-10T21:32:32.366976","GP_ID":"227815811","REF_FRAME":"TEME","PERIOD":"95.593","RCS_SIZE":"LARGE"},{"CENTER_NAME":"EARTH","SITE":"AFETR","MEAN_MOTION_DDOT":"0.0000000000000","ECCENTRICITY":"0.00011560","TIME_SYSTEM":"UTC","ARG_OF_PERICENTER":"121.0115","REV_AT_EPOCH":"11498","COUNTRY_CODE":"US","PERIOD":"95.593","REF_FRAME":"TEME","GP_ID":"227815562","EPOCH":"2023-03-10T22:57:27.594432","MEAN_ANOMALY":"239.0987","RCS_SIZE":"LARGE","SEMIMAJOR_AXIS":"6925.375","RA_OF_ASC_NODE":"306.0736","INCLINATION":"53.0529","APOAPSIS":"548.041","EPHEMERIS_TYPE":"0","DECAY_DATE":null,"MEAN_MOTION":"15.06391244","MEAN_ELEMENT_THEORY":"SGP4","CLASSIFICATION_TYPE":"U","OBJECT_ID":"2021-012AM","NORAD_CAT_ID":"47655","PERIAPSIS":"546.440","TLE_LINE2":"2 47655  53.0529 306.0736 0001156 121.0115 239.0987 15.06391244114988","TLE_LINE1":"1 47655U 21012AM  23069.95656938 -.00000109  00000-0  11573-4 0  9996","FILE":"3856975","ELEMENT_SET_NO":"999","OBJECT_NAME":"STARLINK-2039","BSTAR":"0.00001157300000","MEAN_MOTION_DOT":"-0.00000109","LAUNCH_DATE":"2021-02-16","OBJECT_TYPE":"PAYLOAD"},{"OBJECT_NAME":"STARLINK-2040","BSTAR":"0.00052723000000","MEAN_MOTION_DOT":"0.00007581","LAUNCH_DATE":"2021-02-16","OBJECT_TYPE":"PAYLOAD","SEMIMAJOR_AXIS":"6925.335","RA_OF_ASC_NODE":"286.5898","INCLINATION":"53.0523","APOAPSIS":"547.842","EPHEMERIS_TYPE":"0","MEAN_MOTION":"15.06404416","DECAY_DATE":null,"MEAN_ELEMENT_THEORY":"SGP4","CLASSIFICATION_TYPE":"U","OBJECT_ID":"2021-012AN","NORAD_CAT_ID":"47656","PERIAPSIS":"546.558","TLE_LINE2":"2 47656  53.0523 286.5898 0000927  95.1369 264.9726 15.06404416115245","TLE_LINE1":"1 47656U 21012AN  23069.84046258  .00007581  00000-0  52723-3 0  9994","ELEMENT_SET_NO":"999","FILE":"3856975","PERIOD":"95.592","REF_FRAME":"TEME","GP_ID":"227814310","EPOCH":"2023-03-10T20:10:15.966912","MEAN_ANOMALY":"264.9726","RCS_SIZE":"LARGE","CENTER_NAME":"EARTH","SITE":"AFETR","MEAN_MOTION_DDOT":"0.0000000000000","ECCENTRICITY":"0.00009270","TIME_SYSTEM":"UTC","ARG_OF_PERICENTER":"95.1369","COUNTRY_CODE":"US","REV_AT_EPOCH":"11524"},{"GP_ID":"227814560","REF_FRAME":"TEME","PERIOD":"95.594","MEAN_ANOMALY":"308.6856","EPOCH":"2023-03-10T21:53:46.385088","RCS_SIZE":"LARGE","CENTER_NAME":"EARTH","MEAN_MOTION_DDOT":"0.0000000000000","SITE":"AFETR","TIME_SYSTEM":"UTC","ECCENTRICITY":"0.00010210","REV_AT_EPOCH":"11497","COUNTRY_CODE":"US","ARG_OF_PERICENTER":"51.4224","OBJECT_NAME":"STARLINK-2041","MEAN_MOTION_DOT":"0.00009878","BSTAR":"0.00068161000000","OBJECT_TYPE":"PAYLOAD","LAUNCH_DATE":"2021-02-16","EPHEMERIS_TYPE":"0","APOAPSIS":"548.004","INCLINATION":"53.0522","SEMIMAJOR_AXIS":"6925.432","RA_OF_ASC_NODE":"306.2697","CLASSIFICATION_TYPE":"U","MEAN_ELEMENT_THEORY":"SGP4","MEAN_MOTION":"15.06372747","DECAY_DATE":null,"OBJECT_ID":"2021-012AP","ELEMENT_SET_NO":"999","TLE_LINE1":"1 47657U 21012AP  23069.91234242  .00009878  00000-0  68161-3 0  9999","FILE":"3856975","TLE_LINE2":"2 47657  53.0522 306.2697 0001021  51.4224 308.6856 15.06372747114973","PERIAPSIS":"546.590","NORAD_CAT_ID":"47657"},{"BSTAR":"0.00115210000000","MEAN_MOTION_DOT":"0.00016917","LAUNCH_DATE":"2021-02-16","OBJECT_TYPE":"PAYLOAD","OBJECT_NAME":"STARLINK-2042","OBJECT_ID":"2021-012AQ","NORAD_CAT_ID":"47658","PERIAPSIS":"546.730","TLE_LINE2":"2 47658  53.0514 306.3021 0000731  83.8082 276.2990 15.06392605114991","ELEMENT_SET_NO":"999","TLE_LINE1":"1 47658U 21012AQ  23069.90496916  .00016917  00000-0  11521-2 0  9996","FILE":"3856975","RA_OF_ASC_NODE":"306.3021","SEMIMAJOR_AXIS":"6925.371","INCLINATION":"53.0514","APOAPSIS":"547.742","EPHEMERIS_TYPE":"0","DECAY_DATE":null,"MEAN_MOTION":"15.06392605","MEAN_ELEMENT_THEORY":"SGP4","CLASSIFICATION_TYPE":"U","RCS_SIZE":"LARGE","PERIOD":"95.593","REF_FRAME":"TEME","GP_ID":"227815312","EPOCH":"2023-03-10T21:43:09.335424","MEAN_ANOMALY":"276.2990","ECCENTRICITY":"0.00007310","TIME_SYSTEM":"UTC","ARG_OF_PERICENTER":"83.8082","COUNTRY_CODE":"US","REV_AT_EPOCH":"11499","CENTER_NAME":"EARTH","SITE":"AFETR","MEAN_MOTION_DDOT":"0.0000000000000"},{"EPOCH":"2023-03-10T17:33:40.139712","MEAN_ANOMALY":"284.1427","PERIOD":"95.591","REF_FRAME":"TEME","GP_ID":"227816062","RCS_SIZE":"LARGE","SITE":"AFETR","MEAN_MOTION_DDOT":"0.0000000000000","CENTER_NAME":"EARTH","ARG_OF_PERICENTER":"75.9750","COUNTRY_CODE":"US","REV_AT_EPOCH":"11660","ECCENTRICITY":"0.00016920","TIME_SYSTEM":"UTC","OBJECT_NAME":"STARLINK-2043","LAUNCH_DATE":"2021-02-16","OBJECT_TYPE":"PAYLOAD","BSTAR":"0.00050453000000","MEAN_MOTION_DOT":"0.00007245","MEAN_MOTION":"15.06418957","DECAY_DATE":null,"MEAN_ELEMENT_THEORY":"SGP4","CLASSIFICATION_TYPE":"U","SEMIMAJOR_AXIS":"6925.290","RA_OF_ASC_NODE":"187.0756","INCLINATION":"53.0530","APOAPSIS":"548.327","EPHEMERIS_TYPE":"0","NORAD_CAT_ID":"47659","PERIAPSIS":"545.984","TLE_LINE2":"2 47659  53.0530 187.0756 0001692  75.9750 284.1427 15.06418957116602","TLE_LINE1":"1 47659U 21012AR  23069.73171458  .00007245  00000-0  50453-3 0  9991","FILE":"3856975","ELEMENT_SET_NO":"999","OBJECT_ID":"2021-012AR"},{"LAUNCH_DATE":"2021-02-16","OBJECT_TYPE":"PAYLOAD","BSTAR":"0.00011686000000","MEAN_MOTION_DOT":"0.00001460","OBJECT_NAME":"STARLINK-2044","PERIAPSIS":"545.842","NORAD_CAT_ID":"47660","TLE_LINE1":"1 47660U 21012AS  23069.48575980  .00001460  00000-0  11686-3 0  9991","ELEMENT_SET_NO":"999","FILE":"3856975","TLE_LINE2":"2 47660  53.0531 178.8023 0001964  82.9604 277.1608 15.06403791116702","OBJECT_ID":"2021-012AS","MEAN_ELEMENT_THEORY":"SGP4","MEAN_MOTION":"15.06403791","DECAY_DATE":null,"CLASSIFICATION_TYPE":"U","INCLINATION":"53.0531","SEMIMAJOR_AXIS":"6925.337","RA_OF_ASC_NODE":"178.8023","EPHEMERIS_TYPE":"0","APOAPSIS":"548.562","RCS_SIZE":"LARGE","EPOCH":"2023-03-10T11:39:29.646720","MEAN_ANOMALY":"277.1608","REF_FRAME":"TEME","PERIOD":"95.592","GP_ID":"227814810","ARG_OF_PERICENTER":"82.9604","COUNTRY_CODE":"US","REV_AT_EPOCH":"11670","ECCENTRICITY":"0.00019640","TIME_SYSTEM":"UTC","SITE":"AFETR","MEAN_MOTION_DDOT":"0.0000000000000","CENTER_NAME":"EARTH"}];
